0 FENGYUN 1C DEB
1 30887U 99025AXZ 13280.80627435  .00001463  00000-0  36236-3 0  7377
2 30887 098.8102 272.4599 0328695 105.2922 015.6266 14.25610129344455
0 FENGYUN 1C DEB
1 30887U 99025AXZ 13283.18130965  .00001739  00000-0  42784-3 0  7380
2 30887 098.8099 274.8510 0328766 098.4141 324.7785 14.25622287344799
0 FENGYUN 1C DEB
1 30887U 99025AXZ 13285.21561635  .00001754  00000-0  43149-3 0  7392
2 30887 098.8100 276.8986 0328679 092.5260 325.3207 14.25629324345089
0 FENGYUN 1C DEB
1 30887U 99025AXZ 13287.25114821  .00002344  00000-0  57231-3 0  7404
2 30887 098.8102 278.9478 0328626 086.6254 332.2190 14.25635759345378
0 FENGYUN 1C DEB
1 30887U 99025AXZ 13289.79003620  .00003430  00000-0  83111-3 0  7413
2 30887 098.8100 281.5036 0328569 079.2573 042.5954 14.25652488345731
0 FENGYUN 1C DEB
1 30887U 99025AXZ 13291.82477089  .00003278  00000-0  79476-3 0  7424
2 30887 098.8103 283.5521 0328527 073.3752 045.5660 14.25661236346024
0 FENGYUN 1C DEB
1 30887U 99025AXZ 13294.77275698  .00003856  00000-0  93267-3 0  7430
2 30887 098.8111 286.5203 0328439 064.8371 055.8046 14.25674935346445
